start=new Date('2022-02-12T00:00:00.000Z').valueOf();
sats=[{"MEAN_ELEMENT_THEORY":"SGP4","GP_ID":"195752101","ELEMENT_SET_NO":"999","PERIOD":"95.591","DECAY_DATE":null,"RA_OF_ASC_NODE":"318.0936","COUNTRY_CODE":"US","REV_AT_EPOCH":"5485","BSTAR":"0.00024246000000","ARG_OF_PERICENTER":"58.1348","TIME_SYSTEM":"UTC","SEMIMAJOR_AXIS":"6925.279","CENTER_NAME":"EARTH","TLE_LINE2":"2 47727  53.0567 318.0936 0002041  58.1348 301.9840 15.06422652 54851","SITE":"AFETR","MEAN_MOTION_DOT":"0.00003334","MEAN_MOTION_DDOT":"0.0000000000000","INCLINATION":"53.0567","FILE":"3297735","OBJECT_ID":"2021-017F","OBJECT_TYPE":"PAYLOAD","APOAPSIS":"548.558","REF_FRAME":"TEME","MEAN_MOTION":"15.06422652","OBJECT_NAME":"STARLINK-2129","PERIAPSIS":"545.731","ECCENTRICITY":"0.00020410","MEAN_ANOMALY":"301.9840","EPOCH":"2022-02-11T10:48:06.127488","RCS_SIZE":"LARGE","EPHEMERIS_TYPE":"0","CLASSIFICATION_TYPE":"U","NORAD_CAT_ID":"47727","LAUNCH_DATE":"2021-03-04","TLE_LINE1":"1 47727U 21017F   22042.45007092  .00003334  00000-0  24246-3 0  9999"},{"LAUNCH_DATE":"2021-03-04","TLE_LINE1":"1 47728U 21017G   22042.67216418  .00005191  00000-0  36699-3 0  9996","NORAD_CAT_ID":"47728","CLASSIFICATION_TYPE":"U","EPHEMERIS_TYPE":"0","RCS_SIZE":"LARGE","EPOCH":"2022-02-11T16:07:54.985152","MEAN_ANOMALY":"301.1435","ECCENTRICITY":"0.00016370","PERIAPSIS":"546.045","OBJECT_NAME":"STARLINK-2131","MEAN_MOTION":"15.06411276","REF_FRAME":"TEME","APOAPSIS":"548.313","OBJECT_TYPE":"PAYLOAD","OBJECT_ID":"2021-017G","FILE":"3297843","INCLINATION":"53.0552","MEAN_MOTION_DDOT":"0.0000000000000","MEAN_MOTION_DOT":"0.00005191","SITE":"AFETR","TLE_LINE2":"2 47728  53.0552  37.1076 0001637  58.9715 301.1435 15.06411276 53116","CENTER_NAME":"EARTH","SEMIMAJOR_AXIS":"6925.314","TIME_SYSTEM":"UTC","ARG_OF_PERICENTER":"58.9715","BSTAR":"0.00036699000000","COUNTRY_CODE":"US","REV_AT_EPOCH":"5311","RA_OF_ASC_NODE":"37.1076","DECAY_DATE":null,"PERIOD":"95.591","ELEMENT_SET_NO":"999","GP_ID":"195758479","MEAN_ELEMENT_THEORY":"SGP4"},{"OBJECT_TYPE":"PAYLOAD","OBJECT_ID":"2021-017H","FILE":"3297843","APOAPSIS":"548.137","REF_FRAME":"TEME","MEAN_MOTION":"15.06418742","MEAN_ANOMALY":"281.0582","EPOCH":"2022-02-11T19:32:53.022048","OBJECT_NAME":"STARLINK-2132","PERIAPSIS":"546.175","ECCENTRICITY":"0.00014160","NORAD_CAT_ID":"47729","CLASSIFICATION_TYPE":"U","EPHEMERIS_TYPE":"0","RCS_SIZE":"LARGE","TLE_LINE1":"1 47729U 21017H   22042.81450257  .00005911  00000-0  41520-3 0  9993","LAUNCH_DATE":"2021-03-04","ELEMENT_SET_NO":"999","GP_ID":"195758478","MEAN_ELEMENT_THEORY":"SGP4","RA_OF_ASC_NODE":"341.4526","DECAY_DATE":null,"PERIOD":"95.591","COUNTRY_CODE":"US","REV_AT_EPOCH":"5391","BSTAR":"0.00041520000000","TIME_SYSTEM":"UTC","ARG_OF_PERICENTER":"79.0566","SEMIMAJOR_AXIS":"6925.291","CENTER_NAME":"EARTH","MEAN_MOTION_DOT":"0.00005911","SITE":"AFETR","TLE_LINE2":"2 47729  53.0562 341.4526 0001416  79.0566 281.0582 15.06418742 53914","INCLINATION":"53.0562","MEAN_MOTION_DDOT":"0.0000000000000"},{"COUNTRY_CODE":"US","REV_AT_EPOCH":"5347","BSTAR":"0.00028184000000","MEAN_ELEMENT_THEORY":"SGP4","ELEMENT_SET_NO":"999","GP_ID":"195753854","RA_OF_ASC_NODE":"53.7976","DECAY_DATE":null,"PERIOD":"95.591","TLE_LINE2":"2 47730  53.0543  53.7976 0002015  43.3856 316.7291 15.06411752 53477","MEAN_MOTION_DOT":"0.00003920","SITE":"AFETR","MEAN_MOTION_DDOT":"0.0000000000000","INCLINATION":"53.0543","TIME_SYSTEM":"UTC","ARG_OF_PERICENTER":"43.3856","SEMIMAJOR_AXIS":"6925.313","CENTER_NAME":"EARTH","REF_FRAME":"TEME","MEAN_MOTION":"15.06411752","OBJECT_TYPE":"PAYLOAD","OBJECT_ID":"2021-017J","FILE":"3297735","APOAPSIS":"548.573","RCS_SIZE":"LARGE","EPHEMERIS_TYPE":"0","NORAD_CAT_ID":"47730","CLASSIFICATION_TYPE":"U","TLE_LINE1":"1 47730U 21017J   22042.29571877  .00003920  00000-0  28184-3 0  9998","LAUNCH_DATE":"2021-03-04","EPOCH":"2022-02-11T07:05:50.101728","MEAN_ANOMALY":"316.7291","OBJECT_NAME":"STARLINK-2140","PERIAPSIS":"545.782","ECCENTRICITY":"0.00020150"},{"PERIAPSIS":"546.008","OBJECT_NAME":"STARLINK-2141","ECCENTRICITY":"0.00017200","MEAN_ANOMALY":"301.6672","EPOCH":"2022-02-11T16:49:03.317376","EPHEMERIS_TYPE":"0","RCS_SIZE":"LARGE","CLASSIFICATION_TYPE":"U","NORAD_CAT_ID":"47731","TLE_LINE1":"1 47731U 21017K   22042.70073284  .00003638  00000-0  26297-3 0  9993","LAUNCH_DATE":"2021-03-04","FILE":"3297843","OBJECT_ID":"2021-017K","OBJECT_TYPE":"PAYLOAD","APOAPSIS":"548.390","REF_FRAME":"TEME","MEAN_MOTION":"15.06404858","ARG_OF_PERICENTER":"58.4484","TIME_SYSTEM":"UTC","CENTER_NAME":"EARTH","SEMIMAJOR_AXIS":"6925.334","TLE_LINE2":"2 47731  53.0559  46.9818 0001720  58.4484 301.6672 15.06404858 52979","SITE":"AFETR","MEAN_MOTION_DOT":"0.00003638","MEAN_MOTION_DDOT":"0.0000000000000","INCLINATION":"53.0559","MEAN_ELEMENT_THEORY":"SGP4","GP_ID":"195758974","ELEMENT_SET_NO":"999","DECAY_DATE":null,"PERIOD":"95.592","RA_OF_ASC_NODE":"46.9818","REV_AT_EPOCH":"5297","COUNTRY_CODE":"US","BSTAR":"0.00026297000000"},{"OBJECT_ID":"2021-017L","OBJECT_TYPE":"PAYLOAD","FILE":"3297735","APOAPSIS":"548.105","REF_FRAME":"TEME","MEAN_MOTION":"15.06414543","EPOCH":"2022-02-11T04:27:55.679904","MEAN_ANOMALY":"270.6606","OBJECT_NAME":"STARLINK-2142","PERIAPSIS":"546.233","ECCENTRICITY":"0.00013520","RCS_SIZE":"LARGE","EPHEMERIS_TYPE":"0","NORAD_CAT_ID":"47732","CLASSIFICATION_TYPE":"U","TLE_LINE1":"1 47732U 21017L   22042.18606111  .00005952  00000-0  41798-3 0  9991","LAUNCH_DATE":"2021-03-04","MEAN_ELEMENT_THEORY":"SGP4","ELEMENT_SET_NO":"999","GP_ID":"195752852","RA_OF_ASC_NODE":"324.2708","PERIOD":"95.591","DECAY_DATE":null,"REV_AT_EPOCH":"5472","COUNTRY_CODE":"US","BSTAR":"0.00041798000000","TIME_SYSTEM":"UTC","ARG_OF_PERICENTER":"89.4538","SEMIMAJOR_AXIS":"6925.304","CENTER_NAME":"EARTH","TLE_LINE2":"2 47732  53.0556 324.2708 0001352  89.4538 270.6606 15.06414543 54721","MEAN_MOTION_DOT":"0.00005952","SITE":"AFETR","MEAN_MOTION_DDOT":"0.0000000000000","INCLINATION":"53.0556"},{"MEAN_ELEMENT_THEORY":"SGP4","ELEMENT_SET_NO":"999","GP_ID":"195758501","RA_OF_ASC_NODE":"56.7290","DECAY_DATE":null,"PERIOD":"95.592","REV_AT_EPOCH":"5284","COUNTRY_CODE":"US","BSTAR":"-0.00003716200000","TIME_SYSTEM":"UTC","ARG_OF_PERICENTER":"51.5630","CENTER_NAME":"EARTH","SEMIMAJOR_AXIS":"6925.351","TLE_LINE2":"2 47733  53.0519  56.7290 0001872  51.5630 308.5527 15.06399178 52844","MEAN_MOTION_DOT":"-0.00000835","SITE":"AFETR","MEAN_MOTION_DDOT":"0.0000000000000","INCLINATION":"53.0519","OBJECT_ID":"2021-017M","OBJECT_TYPE":"PAYLOAD","FILE":"3297844","APOAPSIS":"548.513","REF_FRAME":"TEME","MEAN_MOTION":"15.06399178","MEAN_ANOMALY":"308.5527","EPOCH":"2022-02-11T18:07:21.515232","ECCENTRICITY":"0.00018720","PERIAPSIS":"545.920","OBJECT_NAME":"STARLINK-2143","RCS_SIZE":"LARGE","EPHEMERIS_TYPE":"0","NORAD_CAT_ID":"47733","CLASSIFICATION_TYPE":"U","TLE_LINE1":"1 47733U 21017M   22042.75511013 -.00000835  00000-0 -37162-4 0  9999","LAUNCH_DATE":"2021-03-04"},{"BSTAR":"0.00046028000000","REV_AT_EPOCH":"5359","COUNTRY_CODE":"US","DECAY_DATE":null,"PERIOD":"95.591","RA_OF_ASC_NODE":"47.8401","GP_ID":"195753354","ELEMENT_SET_NO":"999","MEAN_ELEMENT_THEORY":"SGP4","INCLINATION":"53.0557","MEAN_MOTION_DDOT":"0.0000000000000","SITE":"AFETR","MEAN_MOTION_DOT":"0.00006584","TLE_LINE2":"2 47734  53.0557  47.8401 0001843  63.8078 296.3100 15.06417302 53596","SEMIMAJOR_AXIS":"6925.296","CENTER_NAME":"EARTH","ARG_OF_PERICENTER":"63.8078","TIME_SYSTEM":"UTC","MEAN_MOTION":"15.06417302","REF_FRAME":"TEME","APOAPSIS":"548.437","FILE":"3297735","OBJECT_TYPE":"PAYLOAD","OBJECT_ID":"2021-017N","LAUNCH_DATE":"2021-03-04","TLE_LINE1":"1 47734U 21017N   22042.50906644  .00006584  00000-0  46028-3 0  9996","CLASSIFICATION_TYPE":"U","NORAD_CAT_ID":"47734","RCS_SIZE":"LARGE","EPHEMERIS_TYPE":"0","OBJECT_NAME":"STARLINK-2144","PERIAPSIS":"545.884","ECCENTRICITY":"0.00018430","MEAN_ANOMALY":"296.3100","EPOCH":"2022-02-11T12:13:03.340416"},{"MEAN_ANOMALY":"297.3492","EPOCH":"2022-02-11T12:13:42.339648","PERIAPSIS":"545.937","ECCENTRICITY":"0.00017950","OBJECT_NAME":"STARLINK-2146","LAUNCH_DATE":"2021-03-04","TLE_LINE1":"1 47735U 21017P   22042.50951782  .00007318  00000-0  50953-3 0  9998","RCS_SIZE":"LARGE","EPHEMERIS_TYPE":"0","NORAD_CAT_ID":"47735","CLASSIFICATION_TYPE":"U","APOAPSIS":"548.423","OBJECT_TYPE":"PAYLOAD","OBJECT_ID":"2021-017P","FILE":"3297845","MEAN_MOTION":"15.06410955","REF_FRAME":"TEME","SEMIMAJOR_AXIS":"6925.315","CENTER_NAME":"EARTH","TIME_SYSTEM":"UTC","ARG_OF_PERICENTER":"62.7680","MEAN_MOTION_DDOT":"0.0000000000000","INCLINATION":"53.0560","TLE_LINE2":"2 47735  53.0560 332.8165 0001795  62.7680 297.3492 15.06410955 53994","MEAN_MOTION_DOT":"0.00007318","SITE":"AFETR","RA_OF_ASC_NODE":"332.8165","DECAY_DATE":null,"PERIOD":"95.591","MEAN_ELEMENT_THEORY":"SGP4","ELEMENT_SET_NO":"999","GP_ID":"195759006","BSTAR":"0.00050953000000","COUNTRY_CODE":"US","REV_AT_EPOCH":"5399"},{"CENTER_NAME":"EARTH","SEMIMAJOR_AXIS":"6925.302","ARG_OF_PERICENTER":"56.9564","TIME_SYSTEM":"UTC","MEAN_MOTION_DDOT":"0.0000000000000","INCLINATION":"53.0555","TLE_LINE2":"2 47736  53.0555  38.5781 0001968  56.9564 303.1613 15.06415132 53747","SITE":"AFETR","MEAN_MOTION_DOT":"0.00004971","DECAY_DATE":null,"PERIOD":"95.591","RA_OF_ASC_NODE":"38.5781","MEAN_ELEMENT_THEORY":"SGP4","GP_ID":"195752352","ELEMENT_SET_NO":"999","BSTAR":"0.00035223000000","COUNTRY_CODE":"US","REV_AT_EPOCH":"5374","ECCENTRICITY":"0.00019680","PERIAPSIS":"545.804","OBJECT_NAME":"STARLINK-2147","EPOCH":"2022-02-11T08:15:32.033664","MEAN_ANOMALY":"303.1613","LAUNCH_DATE":"2021-03-04","TLE_LINE1":"1 47736U 21017Q   22042.34412076  .00004971  00000-0  35223-3 0  9994","RCS_SIZE":"LARGE","EPHEMERIS_TYPE":"0","CLASSIFICATION_TYPE":"U","NORAD_CAT_ID":"47736","APOAPSIS":"548.530","FILE":"3297735","OBJECT_TYPE":"PAYLOAD","OBJECT_ID":"2021-017Q","MEAN_MOTION":"15.06415132","REF_FRAME":"TEME"}];
